{
  "type": "FeatureCollection",
  "features": [
    {
      "type": "Feature",
      "properties": {
        "name": "Țiglina 2"
      },
      "geometry": {
        "type": "Polygon",
        "coordinates": [
          [
            [
              28.03698062896729,
              45.428816850348596
            ],
            [
              28.03699135780335,
              45.4294116731252
            ],
            [
              28.03659439086914,
              45.43366560265902
            ],
            [
              28.034684658050537,
              45.43373336177405
            ],
            [
              28.034126758575443,
              45.43367313145362
            ],
            [
              28.03345084190369,
              45.43320634429044
            ],
            [
              28.032764196395874,
              45.43282990021757
            ],
            [
              28.032302856445316,
              45.43279225567217
            ],
            [
              28.03142309188843,
              45.43288260253893
            ],
            [
              28.03073644638062,
              45.43314611340753
            ],
            [
              28.030275106430057,
              45.4335677282381
            ],
            [
              28.029835224151615,
              45.43374089055959
            ],
            [
              28.028848171234134,
              45.43386135099161
            ],
            [
              28.02570462226868,
              45.43393663863107
            ],
            [
              28.02550077438355,
              45.43298047814805
            ],
            [
              28.02465319633484,
              45.42804131250419
            ],
            [
              28.024857044219974,
              45.42771754112508
            ],
            [
              28.02550077438355,
              45.427642245189354
            ],
            [
              28.03696990013123,
              45.428816850348596
            ],
            [
              28.03698062896729,
              45.428816850348596
            ]
          ]
        ]
      }
    },
    {
      "type": "Feature",
      "properties": {
        "name": "Țiglina 3"
      },
      "geometry": {
        "type": "Polygon",
        "coordinates": [
          [
            [
              28.02518963813782,
              45.43389899482391
            ],
            [
              28.022518157958988,
              45.434252845619916
            ],
            [
              28.01862359046936,
              45.435186398773645
            ],
            [
              28.018902540206913,
              45.43573598332757
            ],
            [
              28.01767945289612,
              45.43597689541725
            ],
            [
              28.017357587814335,
              45.435449898885224
            ],
            [
              28.015673160552982,
              45.43586396800327
            ],
            [
              28.01475048065186,
              45.435969366930024
            ],
            [
              28.01419258117676,
              45.43499818365494
            ],
            [
              28.01318407058716,
              45.4349680691777
            ],
            [
              28.012154102325443,
              45.434757267387
            ],
            [
              28.009879589080814,
              45.434742210086114
            ],
            [
              28.00711154937744,
              45.43463680886735
            ],
            [
              28.007025718688965,
              45.433115997941954
            ],
            [
              28.00626397132874,
              45.43106057944039
            ],
            [
              28.005405664443973,
              45.42618901395431
            ],
            [
              28.01145672798157,
              45.42647514534194
            ],
            [
              28.023011684417728,
              45.427438945661216
            ],
            [
              28.023762702941898,
              45.427597067579704
            ],
            [
              28.02443861961365,
              45.428094019297106
            ],
            [
              28.02491068840027,
              45.43094764218839
            ],
            [
              28.025275468826297,
              45.433612901068855
            ],
            [
              28.02520036697388,
              45.433876408527546
            ],
            [
              28.02518963813782,
              45.43389899482391
            ]
          ]
        ]
      }
    },
    {
      "type": "Feature",
      "properties": {
        "name": "Cartier Filești"
      },
      "geometry": {
        "type": "Polygon",
        "coordinates": [
          [
            [
              28.013892173767093,
              45.456051797488776
            ],
            [
              28.013355731964115,
              45.45636788054057
            ],
            [
              28.014578819274906,
              45.45793321811177
            ],
            [
              28.01676750183106,
              45.45930285284119
            ],
            [
              28.01601648330689,
              45.45981457596115
            ],
            [
              28.016574382781986,
              45.465097093187936
            ],
            [
              28.017110824584964,
              45.47048444989679
            ],
            [
              28.000352382659916,
              45.466918017166364
            ],
            [
              27.999300956726078,
              45.45886637945126
            ],
            [
              28.000545501708988,
              45.452559714439104
            ],
            [
              28.000845909118656,
              45.44686956422087
            ],
            [
              28.001661300659183,
              45.446372777829914
            ],
            [
              28.00374269485474,
              45.44747172367758
            ],
            [
              28.00644636154175,
              45.44778785481916
            ],
            [
              28.00921440124512,
              45.44796850039028
            ],
            [
              28.013892173767093,
              45.45606684910285
            ],
            [
              28.013892173767093,
              45.456051797488776
            ]
          ]
        ]
      }
    },
    {
      "type": "Feature",
      "properties": {
        "name": "Mazepa 1"
      },
      "geometry": {
        "type": "Polygon",
        "coordinates": [
          [
            [
              28.045499324798584,
              45.430375423305115
            ],
            [
              28.047344684600834,
              45.42792836921077
            ],
            [
              28.04644346237183,
              45.42748412339738
            ],
            [
              28.04770946502686,
              45.426068537146655
            ],
            [
              28.049801588058475,
              45.427295882591366
            ],
            [
              28.05415749549866,
              45.42905026256518
            ],
            [
              28.054318428039554,
              45.42979566930962
            ],
            [
              28.05196881294251,
              45.43328163280371
            ],
            [
              28.049587011337284,
              45.432543801042826
            ],
            [
              28.045499324798584,
              45.43038295253863
            ],
            [
              28.045499324798584,
              45.430375423305115
            ]
          ]
        ]
      }
    },
    {
      "type": "Feature",
      "properties": {
        "name": "Mazepa 2"
      },
      "geometry": {
        "type": "Polygon",
        "coordinates": [
          [
            [
              28.037538528442386,
              45.428515671868745
            ],
            [
              28.040821552276615,
              45.42896743898589
            ],
            [
              28.04532766342163,
              45.430262484682125
            ],
            [
              28.047237396240234,
              45.427935898770684
            ],
            [
              28.046379089355472,
              45.427461534533826
            ],
            [
              28.047677278518677,
              45.4260459477166
            ],
            [
              28.045628070831302,
              45.42492399464993
            ],
            [
              28.043525218963627,
              45.424268884226066
            ],
            [
              28.041765689849857,
              45.42359117578755
            ],
            [
              28.04090738296509,
              45.424246294075836
            ],
            [
              28.039008378982547,
              45.425466149251555
            ],
            [
              28.037774562835697,
              45.42722811574751
            ],
            [
              28.037527799606327,
              45.428515671868745
            ],
            [
              28.037538528442386,
              45.428515671868745
            ]
          ]
        ]
      }
    },
    {
      "type": "Feature",
      "properties": {
        "name": "Micro 39A"
      },
      "geometry": {
        "type": "Polygon",
        "coordinates": [
          [
            [
              28.018720149993896,
              45.45760209263397
            ],
            [
              28.018897175788883,
              45.45525405619402
            ],
            [
              28.022528886795047,
              45.455351892997705
            ],
            [
              28.022550344467163,
              45.455671742902084
            ],
            [
              28.022807836532596,
              45.45588246655365
            ],
            [
              28.02347302436829,
              45.45592009569431
            ],
            [
              28.0221962928772,
              45.458185323705834
            ],
            [
              28.02175641059876,
              45.45831325745679
            ],
            [
              28.021069765090942,
              45.45820037475041
            ],
            [
              28.018714785575867,
              45.457605855434394
            ],
            [
              28.018720149993896,
              45.45760209263397
            ]
          ]
        ]
      }
    },
    {
      "type": "Feature",
      "properties": {
        "name": "Micro 38"
      },
      "geometry": {
        "type": "Polygon",
        "coordinates": [
          [
            [
              28.018918633461002,
              45.455212663649064
            ],
            [
              28.01849484443665,
              45.45477615859811
            ],
            [
              28.018575310707096,
              45.453447807787036
            ],
            [
              28.01867723464966,
              45.45282313341642
            ],
            [
              28.019235134124756,
              45.45216834682946
            ],
            [
              28.019422888755802,
              45.45057274308357
            ],
            [
              28.022850751876835,
              45.45017383509381
            ],
            [
              28.0232584476471,
              45.45027544400051
            ],
            [
              28.02344083786011,
              45.45046737143593
            ],
            [
              28.023612499237064,
              45.45134420807829
            ],
            [
              28.024047017097477,
              45.45471595073969
            ],
            [
              28.02393436431885,
              45.45509977473565
            ],
            [
              28.023510575294495,
              45.45590128112711
            ],
            [
              28.022834658622745,
              45.455852363223066
            ],
            [
              28.022603988647464,
              45.455652928252036
            ],
            [
              28.022582530975345,
              45.455318026431
            ],
            [
              28.018913269042972,
              45.45521642660893
            ],
            [
              28.018918633461002,
              45.455212663649064
            ]
          ]
        ]
      }
    },
    {
      "type": "Feature",
      "properties": {
        "name": "Micro 19"
      },
      "geometry": {
        "type": "Polygon",
        "coordinates": [
          [
            [
              28.020082712173465,
              45.42067693679666
            ],
            [
              28.022603988647464,
              45.418236993115755
            ],
            [
              28.0232584476471,
              45.417242911758095
            ],
            [
              28.023365736007694,
              45.41681364394346
            ],
            [
              28.02290439605713,
              45.41646721490662
            ],
            [
              28.014621734619144,
              45.412219520895185
            ],
            [
              28.01401019096375,
              45.41210654594817
            ],
            [
              28.012422323226932,
              45.41269401320489
            ],
            [
              28.011714220047,
              45.41326641132082
            ],
            [
              28.009589910507206,
              45.415330008998865
            ],
            [
              28.020050525665287,
              45.42068446732382
            ],
            [
              28.020082712173465,
              45.42067693679666
            ]
          ]
        ]
      }
    },
    {
      "type": "Feature",
      "properties": {
        "name": "Micro 20"
      },
      "geometry": {
        "type": "Polygon",
        "coordinates": [
          [
            [
              28.00950407981873,
              45.415179383982306
            ],
            [
              28.00596356391907,
              45.41343210442955
            ],
            [
              28.004332780838016,
              45.41256597599021
            ],
            [
              28.00347447395325,
              45.411647112168744
            ],
            [
              28.00175786018372,
              45.409681295922866
            ],
            [
              28.0007815361023,
              45.40873978881527
            ],
            [
              27.99950480461121,
              45.4084385032263
            ],
            [
              27.99953699111939,
              45.40806942618972
            ],
            [
              28.000406026840214,
              45.40767021770054
            ],
            [
              28.00273418426514,
              45.407730475766485
            ],
            [
              28.005920648574833,
              45.40778320152148
            ],
            [
              28.007905483245853,
              45.407820862744906
            ],
            [
              28.010770082473755,
              45.40735386179968
            ],
            [
              28.012926578521732,
              45.40689438935975
            ],
            [
              28.013892173767093,
              45.40630686177857
            ],
            [
              28.0146861076355,
              45.405237244595824
            ],
            [
              28.01487922668457,
              45.40446891552911
            ],
            [
              28.015093803405765,
              45.40457437307855
            ],
            [
              28.015050888061523,
              45.4094478036236
            ],
            [
              28.01476120948792,
              45.411270524316436
            ],
            [
              28.014063835144047,
              45.411970975713444
            ],
            [
              28.012518882751465,
              45.41256597599021
            ],
            [
              28.01152110099793,
              45.413341726430524
            ],
            [
              28.00948262214661,
              45.41519444650204
            ],
            [
              28.00950407981873,
              45.415179383982306
            ]
          ]
        ]
      }
    },
    {
      "type": "Feature",
      "properties": {
        "name": "Micro 18"
      },
      "geometry": {
        "type": "Polygon",
        "coordinates": [
          [
            [
              28.00520181655884,
              45.41599275429885
            ],
            [
              28.00494432449341,
              45.41526975904046
            ],
            [
              28.00523400306702,
              45.41402708931287
            ],
            [
              28.006135225296024,
              45.41362792293126
            ],
            [
              28.017604351043705,
              45.41953228498944
            ],
            [
              28.016542196273807,
              45.42064681467797
            ],
            [
              28.010823726654056,
              45.41777007829397
            ],
            [
              28.010544776916507,
              45.418011067071205
            ],
            [
              28.00751924514771,
              45.416534994668005
            ],
            [
              28.007583618164066,
              45.41621115729599
            ],
            [
              28.0052125453949,
              45.41599275429885
            ],
            [
              28.00520181655884,
              45.41599275429885
            ]
          ]
        ]
      }
    },
    {
      "type": "Feature",
      "properties": {
        "name": "Piața Mare"
      },
      "geometry": {
        "type": "Polygon",
        "coordinates": [
          [
            [
              28.03590774536133,
              45.441224006699144
            ],
            [
              28.046786785125736,
              45.4439489996656
            ],
            [
              28.05017709732056,
              45.43697817526936
            ],
            [
              28.05071353912354,
              45.43524662747907
            ],
            [
              28.051829338073734,
              45.43328916164953
            ],
            [
              28.049061298370365,
              45.43247604049952
            ],
            [
              28.047580718994144,
              45.43158761696162
            ],
            [
              28.04522037506104,
              45.43041306946255
            ],
            [
              28.040843009948734,
              45.42914814482034
            ],
            [
              28.037259578704838,
              45.428681320231526
            ],
            [
              28.036808967590336,
              45.43172314010017
            ],
            [
              28.03595066070557,
              45.4411637843736
            ],
            [
              28.03590774536133,
              45.441224006699144
            ]
          ]
        ]
      }
    },
    {
      "type": "Feature",
      "properties": {
        "name": "Centrul Vechi"
      },
      "geometry": {
        "type": "Polygon",
        "coordinates": [
          [
            [
              28.05464028964984,
              45.44589856855726
            ],
            [
              28.055520054206724,
              45.44388878024879
            ],
            [
              28.056560751304502,
              45.4440016916026
            ],
            [
              28.057193752632017,
              45.443309165074965
            ],
            [
              28.057301040992613,
              45.44196925265787
            ],
            [
              28.057504888877745,
              45.439944268451235
            ],
            [
              28.058170076713438,
              45.4363759038034
            ],
            [
              28.059006925926084,
              45.43562305543149
            ],
            [
              28.060219284400816,
              45.43502076950233
            ],
            [
              28.059983250007505,
              45.433688189039756
            ],
            [
              28.06058406482684,
              45.433499968924195
            ],
            [
              28.061002489433164,
              45.43243086675882
            ],
            [
              28.06182860980975,
              45.431730669153865
            ],
            [
              28.05932879100787,
              45.43047330326226
            ],
            [
              28.058470484123106,
              45.43017213362102
            ],
            [
              28.05607795368182,
              45.42962249488322
            ],
            [
              28.054307695731993,
              45.429020144914055
            ],
            [
              28.05437206874835,
              45.42980319862048
            ],
            [
              28.052054640159483,
              45.433341863542026
            ],
            [
              28.05186152111041,
              45.433349392379775
            ],
            [
              28.050777908668394,
              45.435239098894385
            ],
            [
              28.05015563617694,
              45.43713627046399
            ],
            [
              28.04688334117877,
              45.44387372538452
            ],
            [
              28.05464028964984,
              45.44589104139381
            ],
            [
              28.05464028964984,
              45.44589856855726
            ]
          ]
        ]
      }
    },
    {
      "type": "Feature",
      "properties": {
        "name": "Gara C.F.R."
      },
      "geometry": {
        "type": "Polygon",
        "coordinates": [
          [
            [
              28.0547046661377,
              45.44588351422934
            ],
            [
              28.061281442642215,
              45.447622262537394
            ],
            [
              28.062354326248172,
              45.4439489996656
            ],
            [
              28.060938119888306,
              45.44361026460981
            ],
            [
              28.060122728347782,
              45.44388878024879
            ],
            [
              28.058996200561527,
              45.44326400000614
            ],
            [
              28.057247400283817,
              45.44335433010764
            ],
            [
              28.05665731430054,
              45.44398663676848
            ],
            [
              28.055552244186405,
              45.4439489996656
            ],
            [
              28.05469393730164,
              45.44589856855726
            ],
            [
              28.0547046661377,
              45.44588351422934
            ]
          ]
        ]
      }
    },
    {
      "type": "Feature",
      "properties": {
        "name": "Port"
      },
      "geometry": {
        "type": "Polygon",
        "coordinates": [
          [
            [
              28.057301044464115,
              45.44322636242116
            ],
            [
              28.058996200561527,
              45.44315108717586
            ],
            [
              28.06942462921143,
              45.436165107271684
            ],
            [
              28.06193590164185,
              45.431783372501734
            ],
            [
              28.061034679412845,
              45.432521214204094
            ],
            [
              28.060605525970463,
              45.433560199429486
            ],
            [
              28.059983253479004,
              45.43368066024717
            ],
            [
              28.060305118560795,
              45.435035826728914
            ],
            [
              28.058996200561527,
              45.43571339776642
            ],
            [
              28.058223724365238,
              45.43640601752937
            ],
            [
              28.057322502136234,
              45.443241417458175
            ],
            [
              28.057301044464115,
              45.44322636242116
            ]
          ]
        ]
      }
    },
    {
      "type": "Feature",
      "properties": {
        "name": "Arcașilor"
      },
      "geometry": {
        "type": "Polygon",
        "coordinates": [
          [
            [
              28.014900684356693,
              45.47480299250514
            ],
            [
              28.014106750488285,
              45.47272652203201
            ],
            [
              28.015372753143314,
              45.47045435436217
            ],
            [
              28.017325401306156,
              45.47068007048019
            ],
            [
              28.017368316650394,
              45.4679864658366
            ],
            [
              28.018634319305423,
              45.46791122363539
            ],
            [
              28.032345771789554,
              45.46568400899339
            ],
            [
              28.033461570739746,
              45.4645402699803
            ],
            [
              28.035821914672855,
              45.46518738832496
            ],
            [
              28.034834861755375,
              45.46711365012762
            ],
            [
              28.034105300903324,
              45.469039846107734
            ],
            [
              28.033783435821537,
              45.47492336525884
            ],
            [
              28.033332824707035,
              45.48318333122415
            ],
            [
              28.028333187103275,
              45.483078020517816
            ],
            [
              28.02798986434937,
              45.4844169562669
            ],
            [
              28.02271127700806,
              45.48426651563477
            ],
            [
              28.014965057373047,
              45.47483308571765
            ],
            [
              28.014900684356693,
              45.47480299250514
            ]
          ]
        ]
      }
    },
    {
      "type": "Feature",
      "properties": {
        "name": "Bariera Traian"
      },
      "geometry": {
        "type": "Polygon",
        "coordinates": [
          [
            [
              28.034062385559086,
              45.4717033055445
            ],
            [
              28.03874015808106,
              45.472530908551526
            ],
            [
              28.043868541717533,
              45.47319298220706
            ],
            [
              28.046529293060306,
              45.467655399399995
            ],
            [
              28.046250343322757,
              45.46715879609918
            ],
            [
              28.044877052307132,
              45.46633111420885
            ],
            [
              28.04414749145508,
              45.46535292903388
            ],
            [
              28.042838573455814,
              45.46491650247998
            ],
            [
              28.036572933197025,
              45.46375769833797
            ],
            [
              28.034942150115967,
              45.4670986014624
            ],
            [
              28.0341911315918,
              45.46899470164274
            ],
            [
              28.034105300903324,
              45.471688258104635
            ],
            [
              28.034062385559086,
              45.4717033055445
            ]
          ]
        ]
      }
    },
    {
      "type": "Feature",
      "properties": {
        "name": "Traian Nord"
      },
      "geometry": {
        "type": "Polygon",
        "coordinates": [
          [
            [
              28.033311367034916,
              45.483755014480565
            ],
            [
              28.041636943817142,
              45.48408598634595
            ],
            [
              28.043868541717533,
              45.4733735463996
            ],
            [
              28.034019470214847,
              45.471763495263886
            ],
            [
              28.033311367034916,
              45.483770058698454
            ],
            [
              28.033311367034916,
              45.483755014480565
            ]
          ]
        ]
      }
    },
    {
      "type": "Feature",
      "properties": {
        "name": "Vadul Ungurului"
      },
      "geometry": {
        "type": "Polygon",
        "coordinates": [
          [
            [
              28.043503761291507,
              45.46491650247998
            ],
            [
              28.047988414764408,
              45.456653858917896
            ],
            [
              28.054554462432865,
              45.445996421590735
            ],
            [
              28.06116342544556,
              45.4477276395002
            ],
            [
              28.059511184692386,
              45.452936026887215
            ],
            [
              28.05693626403809,
              45.455630350663704
            ],
            [
              28.050305843353275,
              45.46299016559834
            ],
            [
              28.04644346237183,
              45.46714374744602
            ],
            [
              28.044984340667728,
              45.46633111420885
            ],
            [
              28.04346084594727,
              45.46493155172772
            ],
            [
              28.043503761291507,
              45.46491650247998
            ]
          ]
        ]
      }
    },
    {
      "type": "Feature",
      "properties": {
        "name": "Petru Rareș"
      },
      "geometry": {
        "type": "Polygon",
        "coordinates": [
          [
            [
              28.036551475524906,
              45.46374264877686
            ],
            [
              28.040049076080326,
              45.456774270432376
            ],
            [
              28.046786785125736,
              45.45855031040452
            ],
            [
              28.04343938827515,
              45.46491650247998
            ],
            [
              28.03659439086914,
              45.46377274789509
            ],
            [
              28.036551475524906,
              45.46374264877686
            ]
          ]
        ]
      }
    },
    {
      "type": "Feature",
      "properties": {
        "name": "Zona Veche"
      },
      "geometry": {
        "type": "Polygon",
        "coordinates": [
          [
            [
              28.034502267837524,
              45.45609695231894
            ],
            [
              28.037366867065433,
              45.456187261870774
            ],
            [
              28.03994178771973,
              45.456834476093185
            ],
            [
              28.035778999328617,
              45.465125741211104
            ],
            [
              28.03342938423157,
              45.46453881959332
            ],
            [
              28.034502267837524,
              45.45609695231894
            ]
          ]
        ]
      }
    },
    {
      "type": "Feature",
      "properties": {
        "name": "Azaclau"
      },
      "geometry": {
        "type": "Polygon",
        "coordinates": [
          [
            [
              28.03449153900147,
              45.45594643607781
            ],
            [
              28.03597211837769,
              45.44137456223175
            ],
            [
              28.054511547088627,
              45.4459060957197
            ],
            [
              28.046872615814213,
              45.45849010657569
            ],
            [
              28.040049076080326,
              45.45672911614459
            ],
            [
              28.03740978240967,
              45.45606684910285
            ],
            [
              28.03449153900147,
              45.45594643607781
            ]
          ]
        ]
      }
    },
    {
      "type": "Feature",
      "properties": {
        "name": "Micro 40"
      },
      "geometry": {
        "type": "Polygon",
        "coordinates": [
          [
            [
              28.024352789533648,
              45.4548702323945
            ],
            [
              28.034416437757525,
              45.45558519460631
            ],
            [
              28.03502798141292,
              45.4498802963703
            ],
            [
              28.031219244611773,
              45.449609336980714
            ],
            [
              28.03106904090694,
              45.45009104166226
            ],
            [
              28.03025364936641,
              45.45002330219001
            ],
            [
              28.030232191694292,
              45.449699656921865
            ],
            [
              28.026949167860064,
              45.44959428364314
            ],
            [
              28.023751974714312,
              45.45021146718984
            ],
            [
              28.0235695845013,
              45.45049747678736
            ],
            [
              28.024342060697588,
              45.45491538817079
            ],
            [
              28.024352789533648,
              45.4548702323945
            ]
          ]
        ]
      }
    },
    {
      "type": "Feature",
      "properties": {
        "name": "Micro 39B"
      },
      "geometry": {
        "type": "Polygon",
        "coordinates": [
          [
            [
              28.022325038909916,
              45.45827186715735
            ],
            [
              28.022722005844116,
              45.458685768784356
            ],
            [
              28.031830787658695,
              45.46125941617175
            ],
            [
              28.033783435821537,
              45.461387342947795
            ],
            [
              28.034373521804813,
              45.45573571266526
            ],
            [
              28.02418112754822,
              45.4549755966699
            ],
            [
              28.022314310073856,
              45.45825681613186
            ],
            [
              28.022325038909916,
              45.45827186715735
            ]
          ]
        ]
      }
    },
    {
      "type": "Feature",
      "properties": {
        "name": "Valea Cătușa"
      },
      "geometry": {
        "type": "Polygon",
        "coordinates": [
          [
            [
              28.00503015518189,
              45.44062178055123
            ],
            [
              28.007594347000126,
              45.440576613331
            ],
            [
              28.00700426101685,
              45.43482502519131
            ],
            [
              28.006768226623535,
              45.43264167723949
            ],
            [
              28.006060123443604,
              45.43056365384124
            ],
            [
              28.005309104919437,
              45.426015828462454
            ],
            [
              28.004837036132812,
              45.41949463157522
            ],
            [
              28.00500869750977,
              45.41590991156171
            ],
            [
              28.005115985870365,
              45.41316850152809
            ],
            [
              28.00372123718262,
              45.41215926761824
            ],
            [
              28.0021333694458,
              45.41018593727223
            ],
            [
              28.000738620758057,
              45.40886030260087
            ],
            [
              27.99953699111939,
              45.408528889071725
            ],
            [
              27.99303531646729,
              45.408302924186984
            ],
            [
              27.992284297943115,
              45.41583459987703
            ],
            [
              27.992091178894047,
              45.421603184101144
            ],
            [
              27.992541790008545,
              45.426407377512774
            ],
            [
              27.994301319122318,
              45.42648267509571
            ],
            [
              27.994687557220463,
              45.435261684645376
            ],
            [
              27.994344234466556,
              45.43691794841202
            ],
            [
              27.989902496337894,
              45.43923663601642
            ],
            [
              27.989387512207035,
              45.44113367318676
            ],
            [
              28.00498723983765,
              45.44062178055123
            ],
            [
              28.00503015518189,
              45.44062178055123
            ]
          ]
        ]
      }
    },
    {
      "type": "Feature",
      "properties": {
        "name": "Bădălan"
      },
      "geometry": {
        "type": "Polygon",
        "coordinates": [
          [
            [
              28.057537078857422,
              45.45549488494389
            ],
            [
              28.10731887817383,
              45.44860075533337
            ],
            [
              28.09757709503174,
              45.447125482775405
            ],
            [
              28.0781364440918,
              45.44769753181663
            ],
            [
              28.063716888427738,
              45.4480287154521
            ],
            [
              28.061356544494632,
              45.44763731640129
            ],
            [
              28.05994033813477,
              45.45287581706426
            ],
            [
              28.057494163513187,
              45.45549488494389
            ],
            [
              28.057537078857422,
              45.45549488494389
            ]
          ]
        ]
      }
    },
    {
      "type": "Feature",
      "properties": {
        "name": "Valea Orașului"
      },
      "geometry": {
        "type": "Polygon",
        "coordinates": [
          [
            [
              28.0696177482605,
              45.43619522111014
            ],
            [
              28.072557449340824,
              45.43779123155178
            ],
            [
              28.07144165039063,
              45.43971842927667
            ],
            [
              28.069510459899906,
              45.44190150343202
            ],
            [
              28.073759078979492,
              45.443918889965246
            ],
            [
              28.075196743011478,
              45.4450329381765
            ],
            [
              28.076055049896244,
              45.445334028511176
            ],
            [
              28.07841539382935,
              45.44616201864534
            ],
            [
              28.08092594146729,
              45.44507810182915
            ],
            [
              28.08238506317139,
              45.44384361564397
            ],
            [
              28.085045814514164,
              45.44449097152441
            ],
            [
              28.08380126953125,
              45.4473663462367
            ],
            [
              28.063759803771976,
              45.44795344661478
            ],
            [
              28.06139945983887,
              45.44766742411698
            ],
            [
              28.062579631805423,
              45.44396405450977
            ],
            [
              28.061206340789795,
              45.44348229750384
            ],
            [
              28.06006908416748,
              45.44376834122228
            ],
            [
              28.059017658233643,
              45.44321130738015
            ],
            [
              28.069596290588382,
              45.436225334932544
            ],
            [
              28.0696177482605,
              45.43619522111014
            ]
          ]
        ]
      }
    },
    {
      "type": "Feature",
      "properties": {
        "name": "Șantierul Naval"
      },
      "geometry": {
        "type": "Polygon",
        "coordinates": [
          [
            [
              28.06963920593262,
              45.44185633723628
            ],
            [
              28.073158264160156,
              45.43702334537016
            ],
            [
              28.08090448379517,
              45.44026044177699
            ],
            [
              28.087749481201175,
              45.44199183571505
            ],
            [
              28.09689044952393,
              45.44327152752011
            ],
            [
              28.107511997222904,
              45.44339196760725
            ],
            [
              28.111267089843754,
              45.44349735247256
            ],
            [
              28.106997013092045,
              45.44604158447203
            ],
            [
              28.10631036758423,
              45.44834484347205
            ],
            [
              28.0976414680481,
              45.44723086066625
            ],
            [
              28.083994388580326,
              45.44748677758166
            ],
            [
              28.08515310287476,
              45.44446086211332
            ],
            [
              28.08214902877808,
              45.4437532863259
            ],
            [
              28.08030366897583,
              45.44572544354376
            ],
            [
              28.078308105468754,
              45.446056638757746
            ],
            [
              28.075196743011478,
              45.444972719916734
            ],
            [
              28.074038028717045,
              45.44384361564397
            ],
            [
              28.06968212127686,
              45.44190150343202
            ],
            [
              28.06963920593262,
              45.44185633723628
            ]
          ]
        ]
      }
    },
    {
      "type": "Feature",
      "properties": {
        "name": "Țiglina 1"
      },
      "geometry": {
        "type": "Polygon",
        "coordinates": [
          [
            [
              28.024041652679443,
              45.42688928030795
            ],
            [
              28.024728298187256,
              45.42678386442306
            ],
            [
              28.02535057067871,
              45.427476593777214
            ],
            [
              28.037109375000004,
              45.42862108451949
            ],
            [
              28.03743124008179,
              45.42821449178183
            ],
            [
              28.03771018981934,
              45.427009755363905
            ],
            [
              28.039062023162845,
              45.425172482822006
            ],
            [
              28.0417013168335,
              45.42350081404773
            ],
            [
              28.03841829299927,
              45.42181403502279
            ],
            [
              28.035585880279545,
              45.420066960761226
            ],
            [
              28.03296804428101,
              45.41740106223562
            ],
            [
              28.031079769134525,
              45.41535260271671
            ],
            [
              28.029963970184326,
              45.41664796075621
            ],
            [
              28.02899837493897,
              45.41702451275143
            ],
            [
              28.027882575988773,
              45.41622621954052
            ],
            [
              28.0262303352356,
              45.415593601811125
            ],
            [
              28.024771213531498,
              45.4144639096671
            ],
            [
              28.023548126220707,
              45.41667808500823
            ],
            [
              28.022882938385013,
              45.41800353618746
            ],
            [
              28.02024364471436,
              45.4207145894224
            ],
            [
              28.021509647369385,
              45.42139233239207
            ],
            [
              28.022797107696537,
              45.42505200384486
            ],
            [
              28.023290634155277,
              45.42616642457245
            ],
            [
              28.024020195007328,
              45.42688928030795
            ],
            [
              28.024041652679443,
              45.42688928030795
            ]
          ]
        ]
      }
    },
    {
      "type": "Feature",
      "properties": {
        "name": "Micro 21"
      },
      "geometry": {
        "type": "Polygon",
        "coordinates": [
          [
            [
              28.023290634155277,
              45.416798581855616
            ],
            [
              28.02470684051514,
              45.414313282340416
            ],
            [
              28.026273250579838,
              45.415503227271245
            ],
            [
              28.02820444107056,
              45.4163617795605
            ],
            [
              28.02899837493897,
              45.41690401638616
            ],
            [
              28.030092716217045,
              45.416437090542104
            ],
            [
              28.030929565429688,
              45.415201977760404
            ],
            [
              28.024148941040043,
              45.40638971860243
            ],
            [
              28.022367954254154,
              45.404566840402964
            ],
            [
              28.020393848419193,
              45.40349719027372
            ],
            [
              28.015372753143314,
              45.40269870584852
            ],
            [
              28.015179634094242,
              45.40477775493937
            ],
            [
              28.015115261077884,
              45.40946286767204
            ],
            [
              28.014771938323978,
              45.41145128679889
            ],
            [
              28.015158176422123,
              45.41244547011127
            ],
            [
              28.023290634155277,
              45.416798581855616
            ]
          ]
        ]
      }
    },
    {
      "type": "Feature",
      "properties": {
        "name": "Micro 17"
      },
      "geometry": {
        "type": "Polygon",
        "coordinates": [
          [
            [
              28.00548076629639,
              45.42606100733764
            ],
            [
              28.023633956909183,
              45.42740129752008
            ],
            [
              28.023848533630375,
              45.427024814727844
            ],
            [
              28.022990226745605,
              45.42594053025678
            ],
            [
              28.021917343139652,
              45.42265743083483
            ],
            [
              28.021273612976078,
              45.421347149780544
            ],
            [
              28.01766872406006,
              45.419569938378515
            ],
            [
              28.01661729812622,
              45.42065434520915
            ],
            [
              28.010845184326175,
              45.417852918302145
            ],
            [
              28.01052331924439,
              45.418033659716336
            ],
            [
              28.00747632980347,
              45.41657265005587
            ],
            [
              28.007562160491947,
              45.41621115729599
            ],
            [
              28.00503015518189,
              45.416060534629736
            ],
            [
              28.004879951477054,
              45.42112123618049
            ],
            [
              28.00548076629639,
              45.42600076882936
            ],
            [
              28.00548076629639,
              45.42606100733764
            ]
          ]
        ]
      }
    },
    {
      "type": "Feature",
      "properties": {
        "name": "Micro 39C"
      },
      "geometry": {
        "type": "Polygon",
        "coordinates": [
          [
            [
              28.018666505813602,
              45.45766982300353
            ],
            [
              28.018795251846317,
              45.455246530279
            ],
            [
              28.018355369567875,
              45.454689609781454
            ],
            [
              28.018602132797245,
              45.45277797596484
            ],
            [
              28.01918148994446,
              45.4521006098521
            ],
            [
              28.019331693649296,
              45.450565216543836
            ],
            [
              28.017636537551883,
              45.450903909837365
            ],
            [
              28.016145229339603,
              45.451739344598806
            ],
            [
              28.014128208160404,
              45.45259734579692
            ],
            [
              28.01394581794739,
              45.453395124673555
            ],
            [
              28.014911413192753,
              45.45508848583188
            ],
            [
              28.01696062088013,
              45.45700756700997
            ],
            [
              28.018666505813602,
              45.45768487418571
            ],
            [
              28.018666505813602,
              45.45766982300353
            ]
          ]
        ]
      }
    },
    {
      "type": "Feature",
      "properties": {
        "name": "Siderurgiștilor Vest"
      },
      "geometry": {
        "type": "Polygon",
        "coordinates": [
          [
            [
              28.00711154937744,
              45.434749738737054
            ],
            [
              28.007647991180423,
              45.440576613331
            ],
            [
              28.019814491271976,
              45.44026044177699
            ],
            [
              28.02037239074707,
              45.43998943617766
            ],
            [
              28.021101951599125,
              45.43980876505498
            ],
            [
              28.02423477172852,
              45.435924195985514
            ],
            [
              28.02500724792481,
              45.43482502519131
            ],
            [
              28.025221824646,
              45.433921581111214
            ],
            [
              28.01876306533814,
              45.435261684645376
            ],
            [
              28.01895618438721,
              45.43575856887968
            ],
            [
              28.01769018173218,
              45.43602959479978
            ],
            [
              28.017303943634037,
              45.43554777004188
            ],
            [
              28.01571607589722,
              45.435984423903484
            ],
            [
              28.01475048065186,
              45.43602959479978
            ],
            [
              28.014085292816162,
              45.435050883951455
            ],
            [
              28.012840747833256,
              45.43502076950233
            ],
            [
              28.012089729309082,
              45.434779853330824
            ],
            [
              28.007068634033207,
              45.434749738737054
            ],
            [
              28.00711154937744,
              45.434749738737054
            ]
          ]
        ]
      }
    },
    {
      "type": "Feature",
      "properties": {
        "name": "Cartier I.C. Frimu"
      },
      "geometry": {
        "type": "Polygon",
        "coordinates": [
          [
            [
              28.02599430084229,
              45.44968460446212
            ],
            [
              28.02069425582886,
              45.44074222629504
            ],
            [
              28.02144527435303,
              45.44062178055123
            ],
            [
              28.02185297012329,
              45.4402905534299
            ],
            [
              28.033847808837894,
              45.44077233769084
            ],
            [
              28.035800457000736,
              45.4412089511238
            ],
            [
              28.035027980804443,
              45.44983513741615
            ],
            [
              28.031294345855716,
              45.44951901774867
            ],
            [
              28.031036853790287,
              45.450030829655766
            ],
            [
              28.030350208282474,
              45.44998566996844
            ],
            [
              28.030328750610355,
              45.44963944449758
            ],
            [
              28.026916980743408,
              45.44947385765153
            ],
            [
              28.02599430084229,
              45.44968460446212
            ]
          ]
        ]
      }
    },
    {
      "type": "Feature",
      "properties": {
        "name": "Aurel Vlaicu"
      },
      "geometry": {
        "type": "Polygon",
        "coordinates": [
          [
            [
              28.021273612976078,
              45.439899100688635
            ],
            [
              28.024363517761234,
              45.435969366930024
            ],
            [
              28.02524328231812,
              45.43468950950131
            ],
            [
              28.02545785903931,
              45.43398181116652
            ],
            [
              28.029899597167972,
              45.433831235907725
            ],
            [
              28.031079769134525,
              45.43307835358738
            ],
            [
              28.032131195068363,
              45.432897660336
            ],
            [
              28.032882213592533,
              45.43291271812903
            ],
            [
              28.033719062805176,
              45.433499968924195
            ],
            [
              28.034126758575443,
              45.43377100569172
            ],
            [
              28.036530017852787,
              45.43374089055959
            ],
            [
              28.035864830017093,
              45.441193895544416
            ],
            [
              28.033998012542728,
              45.44074222629504
            ],
            [
              28.0217456817627,
              45.44026044177699
            ],
            [
              28.021273612976078,
              45.439914156613526
            ],
            [
              28.021273612976078,
              45.439899100688635
            ]
          ]
        ]
      }
    },
    {
      "type": "Feature",
      "properties": {
        "name": "Micro 13"
      },
      "geometry": {
        "type": "Polygon",
        "coordinates": [
          [
            [
              28.011209966809993,
              45.44703515799042
            ],
            [
              28.01331281867767,
              45.44709537404859
            ],
            [
              28.01427841392303,
              45.44706526602754
            ],
            [
              28.022968771131282,
              45.44479206402985
            ],
            [
              28.02524328437591,
              45.44866096899842
            ],
            [
              28.02526474204803,
              45.44921794902969
            ],
            [
              28.024921419294124,
              45.4496996570538
            ],
            [
              28.02348375526214,
              45.450000722479764
            ],
            [
              28.017668726117854,
              45.45072327294544
            ],
            [
              28.016724588544612,
              45.45063295464344
            ],
            [
              28.011209966809993,
              45.44706526602754
            ],
            [
              28.011209966809993,
              45.44703515799042
            ]
          ]
        ]
      }
    },
    {
      "type": "Feature",
      "properties": {
        "name": "Micro 14"
      },
      "geometry": {
        "type": "Polygon",
        "coordinates": [
          [
            [
              28.007583620221858,
              45.44074222557314
            ],
            [
              28.007884027631526,
              45.441886447315554
            ],
            [
              28.008720876844173,
              45.44288009473932
            ],
            [
              28.01030874458099,
              45.44555984448571
            ],
            [
              28.011209966809993,
              45.44697494186798
            ],
            [
              28.0140209218576,
              45.447110428053065
            ],
            [
              28.02279710975433,
              45.44483722787533
            ],
            [
              28.020608427198177,
              45.44074222557314
            ],
            [
              28.019857408674007,
              45.440305608528384
            ],
            [
              28.007647993238216,
              45.44074222557314
            ],
            [
              28.007583620221858,
              45.44074222557314
            ]
          ]
        ]
      }
    },
    {
      "type": "Feature",
      "properties": {
        "name": "D. Cantemir"
      },
      "geometry": {
        "type": "Polygon",
        "coordinates": [
          [
            [
              28.007572889328006,
              45.38737465835528
            ],
            [
              28.00816297531128,
              45.38672664738087
            ],
            [
              28.0102014541626,
              45.38746507790064
            ],
            [
              28.011424541473392,
              45.387736335668926
            ],
            [
              28.012540340423588,
              45.387630846691486
            ],
            [
              28.01402091979981,
              45.387261633720165
            ],
            [
              28.015823364257816,
              45.38764591655747
            ],
            [
              28.01570534706116,
              45.388346660888146
            ],
            [
              28.015147447586063,
              45.388602844819005
            ],
            [
              28.012164831161503,
              45.38903986178599
            ],
            [
              28.01068425178528,
              45.388994653290936
            ],
            [
              28.00902128219605,
              45.3885199619096
            ],
            [
              28.007326126098636,
              45.38777401025602
            ],
            [
              28.007540702819828,
              45.38738219332292
            ],
            [
              28.007572889328006,
              45.38737465835528
            ]
          ]
        ]
      }
    },
    {
      "type": "Feature",
      "properties": {
        "name": "Combinatul Siderurgic"
      },
      "geometry": {
        "type": "Polygon",
        "coordinates": [
          [
            [
              27.99275636672974,
              45.408287859829166
            ],
            [
              27.98702716827393,
              45.4126563552307
            ],
            [
              27.98700571060181,
              45.40999010683619
            ],
            [
              27.981319427490238,
              45.41003529853555
            ],
            [
              27.981147766113285,
              45.41158685828111
            ],
            [
              27.977113723754886,
              45.41175255631742
            ],
            [
              27.976963520050052,
              45.4086644675687
            ],
            [
              27.974603176116947,
              45.408694596079386
            ],
            [
              27.974667549133304,
              45.411134952074875
            ],
            [
              27.969775199890137,
              45.411134952074875
            ],
            [
              27.969431877136234,
              45.41086380661554
            ],
            [
              27.967908382415775,
              45.41098431586928
            ],
            [
              27.967972755432132,
              45.412083950931645
            ],
            [
              27.965762615203857,
              45.412219520895185
            ],
            [
              27.9662561416626,
              45.41973561299222
            ],
            [
              27.964689731597904,
              45.41969042905486
            ],
            [
              27.9617714881897,
              45.42247670422147
            ],
            [
              27.961599826812748,
              45.42598570919225
            ],
            [
              27.962372303009037,
              45.42705493344362
            ],
            [
              27.962265014648438,
              45.42874155587929
            ],
            [
              27.96531200408936,
              45.42866626130955
            ],
            [
              27.964925765991214,
              45.430232367677846
            ],
            [
              27.963895797729496,
              45.43038295253863
            ],
            [
              27.959239482879642,
              45.429931196751
            ],
            [
              27.959175109863285,
              45.434779853330824
            ],
            [
              27.95958280563355,
              45.44053144607461
            ],
            [
              27.957415580749515,
              45.444370533783534
            ],
            [
              27.95694351196289,
              45.44539424638526
            ],
            [
              27.95705080032349,
              45.44869107688957
            ],
            [
              27.95932531356812,
              45.45159634313007
            ],
            [
              27.959883213043216,
              45.45426062672939
            ],
            [
              27.959861755371097,
              45.459694170938995
            ],
            [
              27.96202898025513,
              45.46243332158008
            ],
            [
              27.965848445892334,
              45.46625586979802
            ],
            [
              27.967951297760013,
              45.46926556789042
            ],
            [
              27.96902418136597,
              45.47024368516981
            ],
            [
              27.9712986946106,
              45.470785404359255
            ],
            [
              27.972865104675297,
              45.47036406766188
            ],
            [
              27.974581718444828,
              45.468693737618665
            ],
            [
              27.97852993011475,
              45.46360720254595
            ],
            [
              27.97977447509766,
              45.460100536858306
            ],
            [
              27.981920242309574,
              45.45695488722195
            ],
            [
              27.98297166824341,
              45.45505838207746
            ],
            [
              27.983658313751224,
              45.453447807787036
            ],
            [
              27.98623323440552,
              45.44956417780963
            ],
            [
              27.98754215240479,
              45.447622262537394
            ],
            [
              27.989387512207035,
              45.44527381057279
            ],
            [
              27.990353107452396,
              45.44321130738015
            ],
            [
              27.990438938140873,
              45.44190150343202
            ],
            [
              27.989323139190677,
              45.4412089511238
            ],
            [
              27.9897952079773,
              45.43910113092072
            ],
            [
              27.994172573089603,
              45.436812551257006
            ],
            [
              27.99449443817139,
              45.435532712951904
            ],
            [
              27.994086742401127,
              45.426588091543074
            ],
            [
              27.992413043975834,
              45.42643749655802
            ],
            [
              27.99196243286133,
              45.4209555656326
            ],
            [
              27.99275636672974,
              45.408287859829166
            ]
          ]
        ]
      }
    }
  ]
}