{
  "type": "FeatureCollection",
  "features": [
    {
      "type": "Feature",
      "geometry": {
        "type": "LineString",
        "coordinates": [
          [
            27.868162,
            45.422537
          ],
          [
            27.873774,
            45.434885
          ],
          [
            27.87747,
            45.446371
          ],
          [
            27.881466,
            45.458076
          ],
          [
            27.882839,
            45.462189
          ],
          [
            27.887938,
            45.474506
          ],
          [
            27.902312,
            45.50442
          ],
          [
            27.904217,
            45.508024
          ],
          [
            27.905397,
            45.509388
          ],
          [
            27.907875,
            45.511806
          ],
          [
            27.913594,
            45.515944
          ],
          [
            27.919307,
            45.519361
          ],
          [
            27.922504,
            45.52097
          ],
          [
            27.925674,
            45.522432
          ],
          [
            27.927289,
            45.523014
          ],
          [
            27.931216,
            45.524412
          ],
          [
            27.935153,
            45.526352
          ],
          [
            27.93761,
            45.527419
          ],
          [
            27.943286,
            45.529614
          ],
          [
            27.950839,
            45.532372
          ],
          [
            27.955466,
            45.53455
          ],
          [
            27.96587,
            45.540263
          ],
          [
            27.977328,
            45.546064
          ],
          [
            27.982736,
            45.548686
          ],
          [
            27.998893,
            45.555696
          ],
          [
            28.010952,
            45.560744
          ],
          [
            28.013399,
            45.56151
          ],
          [
            28.016875,
            45.562231
          ],
          [
            28.028097,
            45.56341
          ],
          [
            28.03079,
            45.563546
          ],
          [
            28.036648,
            45.56344
          ],
          [
            28.039663,
            45.5632
          ]
        ]
      },
      "properties": {
        "name": "Valul lui Traian",
        "altname": "Valul Traian-Tulucești / Valul Galațiului",
        "fortification_type": "limes",
        "length_km": 22.44,
        "source": "OpenStreetMap way 1498345880"
      }
    },
    {
      "type": "Feature",
      "geometry": {
        "type": "LineString",
        "coordinates": [
          [
            28.0735,
            45.705
          ],
          [
            27.965,
            45.74
          ],
          [
            27.883,
            45.751
          ],
          [
            27.835,
            45.747
          ],
          [
            27.806,
            45.79
          ],
          [
            27.705,
            45.805
          ],
          [
            27.67,
            45.865
          ],
          [
            27.585,
            45.88
          ],
          [
            27.4344,
            45.9015
          ],
          [
            27.4235,
            45.9181
          ],
          [
            27.3795,
            45.9691
          ],
          [
            27.355,
            45.975
          ],
          [
            27.3327,
            45.9785
          ],
          [
            27.355,
            46.025
          ],
          [
            27.334,
            46.05
          ],
          [
            27.2703,
            46.0786
          ]
        ]
      },
      "properties": {
        "name": "Valul lui Atanaric",
        "altname": "Valul Athanaric / Valul Brăhășești-Stoicani",
        "fortification_type": "frontier (gotic, 376 d.Hr.)",
        "length_km": 85.6,
        "expected_length_km": 90,
        "loc_id": "loc-198",
        "source": "Reconstrucție pe baza descrierii Wikipedia + Adevărul + RAN (coduri 02975.01-16). Trasee de referință: NW-SE pe platoul dintre văile Tecucelului și Bârladului. Coordonate verificate din OSM pentru localitățile-reper. Aproximare ±1 km — pentru detaliu de teren, vezi sectoarele RAN: Tecucelu Sec, Vizurești.",
        "waypoint_count": 16
      }
    },
    {
      "type": "Feature",
      "geometry": {
        "type": "Polygon",
        "coordinates": [
          [
            [
              28.1389956,
              45.3781805
            ],
            [
              28.1390118,
              45.3782071
            ],
            [
              28.1389779,
              45.3782608
            ],
            [
              28.139199,
              45.3784367
            ],
            [
              28.1395212,
              45.3786688
            ],
            [
              28.1395712,
              45.3786567
            ],
            [
              28.1396302,
              45.3786705
            ],
            [
              28.1396607,
              45.3786966
            ],
            [
              28.1396699,
              45.3787314
            ],
            [
              28.1396389,
              45.3787793
            ],
            [
              28.1395848,
              45.378787
            ],
            [
              28.1395401,
              45.3787929
            ],
            [
              28.1395104,
              45.3788197
            ],
            [
              28.1396037,
              45.3788645
            ],
            [
              28.1396754,
              45.3788517
            ],
            [
              28.1397515,
              45.378858
            ],
            [
              28.1398059,
              45.3788925
            ],
            [
              28.1398161,
              45.378951
            ],
            [
              28.1398099,
              45.3790175
            ],
            [
              28.1395772,
              45.379262
            ],
            [
              28.1395121,
              45.3792903
            ],
            [
              28.1394289,
              45.379309
            ],
            [
              28.1392689,
              45.3794972
            ],
            [
              28.1391105,
              45.379405
            ],
            [
              28.1391127,
              45.3794507
            ],
            [
              28.139099,
              45.3794803
            ],
            [
              28.1390489,
              45.3794913
            ],
            [
              28.1390096,
              45.3794633
            ],
            [
              28.1389087,
              45.3794989
            ],
            [
              28.1387818,
              45.3795525
            ],
            [
              28.1388145,
              45.3795699
            ],
            [
              28.1388221,
              45.379613
            ],
            [
              28.1387938,
              45.3796514
            ],
            [
              28.1387433,
              45.3796727
            ],
            [
              28.1386941,
              45.3796702
            ],
            [
              28.1386577,
              45.3796507
            ],
            [
              28.1386574,
              45.3795977
            ],
            [
              28.1385561,
              45.3796086
            ],
            [
              28.1386119,
              45.3796411
            ],
            [
              28.1386434,
              45.3797011
            ],
            [
              28.138615,
              45.3797849
            ],
            [
              28.1385195,
              45.3798271
            ],
            [
              28.1384065,
              45.379829
            ],
            [
              28.1383135,
              45.3798117
            ],
            [
              28.1382584,
              45.3797525
            ],
            [
              28.1383204,
              45.3796398
            ],
            [
              28.1380569,
              45.379562
            ],
            [
              28.1380194,
              45.3795721
            ],
            [
              28.1379396,
              45.3795667
            ],
            [
              28.1379081,
              45.3795226
            ],
            [
              28.1379075,
              45.3794641
            ],
            [
              28.1379301,
              45.3794318
            ],
            [
              28.1380498,
              45.3791675
            ],
            [
              28.1382014,
              45.3788378
            ],
            [
              28.1382635,
              45.3787504
            ],
            [
              28.1383516,
              45.3786777
            ],
            [
              28.1388644,
              45.3782747
            ],
            [
              28.1388146,
              45.3782485
            ],
            [
              28.1388053,
              45.3782091
            ],
            [
              28.1388513,
              45.378175
            ],
            [
              28.1389356,
              45.3781576
            ],
            [
              28.1389956,
              45.3781805
            ]
          ]
        ]
      },
      "properties": {
        "name": "Cetatea Dinogeția",
        "altname": "Dinogetia (târzie, sec. IV–VI d.Hr.)",
        "historic": "archaeological_site",
        "fortification_type": "limes / castru",
        "period": "ancient",
        "location": "Popina Bisericuța, satul Garvăn, com. Jijila, jud. Tulcea",
        "source": "OSM way #57683048"
      }
    }
  ]
}
